{
    "links": {
        "self": "http://www.neowsapp.com/rest/v1/neo/3092389?api_key=iIulBulltgU6a56xZRHN4H3l9WmuAYTsLGpBGhQ2"
    },
    "id": "3092389",
    "neo_reference_id": "3092389",
    "name": "(2001 UO)",
    "designation": "2001 UO",
    "nasa_jpl_url": "http://ssd.jpl.nasa.gov/sbdb.cgi?sstr=3092389",
    "absolute_magnitude_h": 24.1,
    "estimated_diameter": {
        "kilometers": {
            "estimated_diameter_min": 0.040230458,
            "estimated_diameter_max": 0.0899580388
        },
        "meters": {
            "estimated_diameter_min": 40.2304579834,
            "estimated_diameter_max": 89.9580388169
        },
        "miles": {
            "estimated_diameter_min": 0.0249980399,
            "estimated_diameter_max": 0.0558973165
        },
        "feet": {
            "estimated_diameter_min": 131.9896957704,
            "estimated_diameter_max": 295.1379320721
        }
    },
    "is_potentially_hazardous_asteroid": false,
    "close_approach_data": [
        {
            "close_approach_date": "2001-10-11",
            "close_approach_date_full": "2001-Oct-11 08:52",
            "epoch_date_close_approach": 1002790320000,
            "relative_velocity": {
                "kilometers_per_second": "15.8639717532",
                "kilometers_per_hour": "57110.2983115031",
                "miles_per_hour": "35486.1184147226"
            },
            "miss_distance": {
                "astronomical": "0.0225879777",
                "lunar": "8.7867233253",
                "kilometers": "3379113.351527499",
                "miles": "2099683.6730135262"
            },
            "orbiting_body": "Earth"
        },
        {
            "close_approach_date": "2003-08-13",
            "close_approach_date_full": "2003-Aug-13 12:37",
            "epoch_date_close_approach": 1060778220000,
            "relative_velocity": {
                "kilometers_per_second": "4.7518801627",
                "kilometers_per_hour": "17106.7685855628",
                "miles_per_hour": "10629.4807358459"
            },
            "miss_distance": {
                "astronomical": "1.3609930707",
                "lunar": "529.4263045023",
                "kilometers": "203601664.461479409",
                "miles": "126512207.8473334842"
            },
            "orbiting_body": "Juptr"
        }
    ],
    "orbital_data": {
        "orbit_id": "7",
        "orbit_determination_date": "2017-04-06 09:15:59",
        "first_observation_date": "2001-10-16",
        "last_observation_date": "2001-10-18",
        "data_arc_in_days": 2,
        "observations_used": 14,
        "orbit_uncertainty": "8",
        "minimum_orbit_intersection": ".0149919",
        "jupiter_tisserand_invariant": "3.060",
        "epoch_osculation": "2452199.5",
        "eccentricity": ".6737435782516062",
        "semi_major_axis": "2.548584417502614",
        "inclination": "10.08294721209805",
        "ascending_node_longitude": "24.09116108775397",
        "orbital_period": "1486.096331168435",
        "perihelion_distance": ".8314920325781172",
        "perihelion_argument": "300.4977401631293",
        "aphelion_distance": "4.26567680242711",
        "perihelion_time": "2452157.136674670243",
        "mean_anomaly": "10.26232068463668",
        "mean_motion": ".2422453998772421",
        "equinox": "J2000",
        "orbit_class": {
            "orbit_class_type": "APO",
            "orbit_class_description": "Near-Earth asteroid orbits which cross the Earth’s orbit similar to that of 1862 Apollo",
            "orbit_class_range": "a (semi-major axis) > 1.0 AU; q (perihelion) < 1.017 AU"
        }
    },
    "is_sentry_object": false
}